{"type":"FeatureCollection","features":[{"type":"Feature","properties":{"lote":"1","estado":"vendido"},"geometry":{"type":"Polygon","coordinates":[[[-71.4968596,-36.5995264],[-71.4978612,-36.598983],[-71.4976325,-36.5986026],[-71.4976142,-36.5985983],[-71.496548,-36.5992539],[-71.4966204,-36.5992973],[-71.4966818,-36.5993411],[-71.4968175,-36.5994724],[-71.4968596,-36.5995264]]]}},{"type":"Feature","properties":{"lote":"2","estado":"disponible"},"geometry":{"type":"Polygon","coordinates":[[[-71.4981043,-36.5994031],[-71.4979564,-36.5991454],[-71.4978612,-36.598983],[-71.4968596,-36.5995264],[-71.4969101,-36.5995972],[-71.4969961,-36.5997405],[-71.4970722,-36.599874],[-71.4981043,-36.5994031]]]}},{"type":"Feature","properties":{"lote":"3","estado":"reservado"},"geometry":{"type":"Polygon","coordinates":[[[-71.4983618,-36.5998521],[-71.4972352,-36.6002033],[-71.4972542,-36.6002462],[-71.4972732,-36.6002892],[-71.4972922,-36.6003322],[-71.4973112,-36.6003752],[-71.4973276,-36.6004127],[-71.497344,-36.6004503],[-71.4973767,-36.6005254],[-71.4974015,-36.600592],[-71.4985827,-36.6002371],[-71.4983618,-36.5998521]]]}},{"type":"Feature","properties":{"lote":"4","estado":"reservado"},"geometry":{"type":"Polygon","coordinates":[[[-71.4985827,-36.6002371],[-71.4974015,-36.600592],[-71.4974072,-36.6006125],[-71.4974187,-36.6006535],[-71.4974331,-36.6007062],[-71.4974482,-36.6007629],[-71.4974547,-36.6007874],[-71.4974671,-36.6008387],[-71.4974795,-36.60089],[-71.4974893,-36.6009533],[-71.4988131,-36.6006386],[-71.4985827,-36.6002371]]]}},{"type":"Feature","properties":{"lote":"5","estado":"disponible"},"geometry":{"type":"Polygon","coordinates":[[[-71.4963674,-36.6002394],[-71.497043,-36.5999967],[-71.4969283,-36.5997948],[-71.4968308,-36.5996305],[-71.4967445,-36.5995144],[-71.4966168,-36.599391],[-71.4965636,-36.5993531],[-71.4965057,-36.5993184],[-71.4964332,-36.5993228],[-71.4963138,-36.5993575],[-71.4960071,-36.5994835],[-71.4963674,-36.6002394]]]}},{"type":"Feature","properties":{"lote":"6","estado":"disponible"},"geometry":{"type":"Polygon","coordinates":[[[-71.4963674,-36.6002394],[-71.4960071,-36.5994835],[-71.4953689,-36.5997804],[-71.4957618,-36.6004587],[-71.4963674,-36.6002394]]]}},{"type":"Feature","properties":{"lote":"7","estado":"disponible"},"geometry":{"type":"Polygon","coordinates":[[[-71.4972207,-36.600385],[-71.4965616,-36.6006229],[-71.4969598,-36.601457],[-71.4972565,-36.6013426],[-71.4973453,-36.6012472],[-71.4974044,-36.6010609],[-71.4974001,-36.600959],[-71.4973912,-36.6009017],[-71.4973815,-36.6008626],[-71.4973507,-36.6007399],[-71.4973151,-36.6006106],[-71.4972916,-36.6005475],[-71.4972551,-36.600464],[-71.4972207,-36.600385]]]}},{"type":"Feature","properties":{"lote":"8","estado":"disponible"},"geometry":{"type":"Polygon","coordinates":[[[-71.4965616,-36.6006229],[-71.4959761,-36.6008265],[-71.4964671,-36.6016556],[-71.4966774,-36.6015709],[-71.4967734,-36.6015322],[-71.4969598,-36.601457],[-71.4965616,-36.6006229]]]}},{"type":"Feature","properties":{"lote":"9","estado":"disponible"},"geometry":{"type":"Polygon","coordinates":[[[-71.497043,-36.5999967],[-71.4963674,-36.6002394],[-71.4957618,-36.6004587],[-71.4957708,-36.6004742],[-71.4959187,-36.6007267],[-71.4959761,-36.6008265],[-71.4965616,-36.6006229],[-71.4972207,-36.600385],[-71.4972085,-36.6003573],[-71.4971892,-36.6003134],[-71.4971834,-36.6003002],[-71.4971796,-36.6002915],[-71.4971447,-36.600212],[-71.4970753,-36.6000542],[-71.497043,-36.5999967]]]}},{"type":"Feature","properties":{"lote":"10","estado":"disponible"},"geometry":{"type":"Polygon","coordinates":[[[-71.4949327,-36.5999664],[-71.4954634,-36.6009001],[-71.4959173,-36.6007272],[-71.4957708,-36.6004742],[-71.4957617,-36.6004587],[-71.4953689,-36.5997804],[-71.4949327,-36.5999664]]]}},{"type":"Feature","properties":{"lote":"11","estado":"reservado"},"geometry":{"type":"Polygon","coordinates":[[[-71.4959173,-36.6007272],[-71.4954634,-36.6009001],[-71.4960318,-36.6018709],[-71.4964671,-36.6016556],[-71.4959761,-36.6008265],[-71.4959187,-36.6007267],[-71.4957708,-36.6004742],[-71.4959173,-36.6007272]]]}},{"type":"Feature","properties":{"lote":"12","estado":"reservado"},"geometry":{"type":"Polygon","coordinates":[[[-71.4954634,-36.6009001],[-71.4949327,-36.5999664],[-71.4947569,-36.6000431],[-71.494624,-36.6001011],[-71.4945138,-36.6001572],[-71.4944778,-36.6001781],[-71.4950219,-36.601075],[-71.4950219,-36.601075],[-71.4950219,-36.601075],[-71.4954634,-36.6009001]]]}},{"type":"Feature","properties":{"lote":"13","estado":"reservado"},"geometry":{"type":"Polygon","coordinates":[[[-71.4960318,-36.6018709],[-71.4954634,-36.6009001],[-71.4950219,-36.601075],[-71.4950389,-36.6011029],[-71.4950644,-36.601145],[-71.4956172,-36.602058],[-71.4960318,-36.6018709]]]}},{"type":"Feature","properties":{"lote":"14","estado":"reservado"},"geometry":{"type":"Polygon","coordinates":[[[-71.4950643,-36.601145],[-71.4950389,-36.6011029],[-71.4944778,-36.6001781],[-71.4943724,-36.6002571],[-71.49423,-36.6004094],[-71.4941187,-36.6005579],[-71.4946036,-36.6013247],[-71.4950643,-36.601145]]]}},{"type":"Feature","properties":{"lote":"15","estado":"disponible"},"geometry":{"type":"Polygon","coordinates":[[[-71.4956172,-36.602058],[-71.4950643,-36.601145],[-71.4946036,-36.6013247],[-71.4946854,-36.6014563],[-71.495157,-36.6022166],[-71.4956172,-36.602058]]]}},{"type":"Feature","properties":{"lote":"16","estado":"disponible"},"geometry":{"type":"Polygon","coordinates":[[[-71.4946036,-36.6013247],[-71.4941187,-36.6005579],[-71.4940463,-36.6006441],[-71.4940124,-36.6007003],[-71.4939782,-36.6007776],[-71.4939359,-36.6008731],[-71.4938934,-36.6009902],[-71.4938788,-36.6010304],[-71.493825,-36.6011208],[-71.4937921,-36.6011741],[-71.4941223,-36.6016875],[-71.4946853,-36.6014564],[-71.4946036,-36.6013247]]]}},{"type":"Feature","properties":{"lote":"17","estado":"reservado"},"geometry":{"type":"Polygon","coordinates":[[[-71.4948744,-36.6023021],[-71.495157,-36.6022166],[-71.4946853,-36.6014564],[-71.4941223,-36.6016875],[-71.4945423,-36.6023733],[-71.4947043,-36.6023428],[-71.4948744,-36.6023021]]]}},{"type":"Feature","properties":{"lote":"18","estado":"disponible"},"geometry":{"type":"Polygon","coordinates":[[[-71.4945423,-36.6023733],[-71.4941223,-36.6016875],[-71.4933274,-36.6020236],[-71.4934767,-36.6022376],[-71.4935497,-36.6023335],[-71.4935865,-36.6023704],[-71.4936594,-36.6024209],[-71.4938161,-36.6024264],[-71.4940192,-36.602428],[-71.4942224,-36.6024135],[-71.4945423,-36.6023733]]]}},{"type":"Feature","properties":{"lote":"19","estado":"reservado"},"geometry":{"type":"Polygon","coordinates":[[[-71.4939607,-36.6024996],[-71.4939022,-36.6032531],[-71.4947039,-36.6032266],[-71.4944886,-36.602453],[-71.4944233,-36.6024612],[-71.4943504,-36.6024704],[-71.4943009,-36.6024766],[-71.4942534,-36.6024824],[-71.4942262,-36.6024856],[-71.4941886,-36.6024883],[-71.4941664,-36.6024899],[-71.4941216,-36.6024931],[-71.4940923,-36.6024951],[-71.4940578,-36.6024976],[-71.4940233,-36.6025001],[-71.4939607,-36.6024996]]]}},{"type":"Feature","properties":{"lote":"20","estado":"disponible"},"geometry":{"type":"Polygon","coordinates":[[[-71.4939022,-36.6032531],[-71.4939607,-36.6024996],[-71.4938855,-36.602499],[-71.4938001,-36.6024977],[-71.4937503,-36.6024962],[-71.4936971,-36.6024943],[-71.4936501,-36.6024927],[-71.4936246,-36.6024918],[-71.4929109,-36.6032978],[-71.4939022,-36.6032531]]]}},{"type":"Feature","properties":{"lote":"21","estado":"disponible"},"geometry":{"type":"Polygon","coordinates":[[[-71.4929109,-36.6032978],[-71.4936246,-36.6024918],[-71.4935228,-36.6024215],[-71.4934769,-36.6023757],[-71.4934005,-36.6022753],[-71.4924659,-36.6027078],[-71.4929109,-36.6032978]]]}},{"type":"Feature","properties":{"lote":"22","estado":"reservado"},"geometry":{"type":"Polygon","coordinates":[[[-71.4924657,-36.6027075],[-71.4934005,-36.6022753],[-71.4933711,-36.6022366],[-71.4933096,-36.6021467],[-71.4932704,-36.6020896],[-71.4932261,-36.6020224],[-71.4931936,-36.6019714],[-71.4931627,-36.601923],[-71.4931209,-36.6018575],[-71.492164,-36.6023077],[-71.4924659,-36.6027078],[-71.4924659,-36.6027078],[-71.4924657,-36.6027075]]]}},{"type":"Feature","properties":{"lote":"23","estado":"reservado"},"geometry":{"type":"Polygon","coordinates":[[[-71.492164,-36.6023077],[-71.4931209,-36.6018575],[-71.4929171,-36.6015413],[-71.492873,-36.6014677],[-71.4918462,-36.6018863],[-71.492164,-36.6023077]]]}},{"type":"Feature","properties":{"lote":"24","estado":"disponible"},"geometry":{"type":"Polygon","coordinates":[[[-71.4915328,-36.6014708],[-71.492517,-36.6010821],[-71.4921423,-36.6006687],[-71.4912252,-36.6010631],[-71.4915328,-36.6014708]]]}},{"type":"Feature","properties":{"lote":"25","estado":"disponible"},"geometry":{"type":"Polygon","coordinates":[[[-71.4912252,-36.6010631],[-71.4907839,-36.6004781],[-71.4920864,-36.6003778],[-71.4920773,-36.6003986],[-71.4920702,-36.6004199],[-71.4920651,-36.6004415],[-71.4920621,-36.6004634],[-71.4920611,-36.6004854],[-71.4920622,-36.6005075],[-71.4920654,-36.6005293],[-71.4920706,-36.600551],[-71.4920778,-36.6005722],[-71.492087,-36.600593],[-71.4920982,-36.6006131],[-71.4921111,-36.6006325],[-71.4921259,-36.600651],[-71.4921423,-36.6006686],[-71.4912252,-36.6010631]]]}},{"type":"Feature","properties":{"lote":"26","estado":"disponible"},"geometry":{"type":"Polygon","coordinates":[[[-71.4927928,-36.60005],[-71.4927214,-36.6000723],[-71.4926852,-36.6000888],[-71.4926451,-36.6001071],[-71.4925941,-36.6001303],[-71.4925566,-36.6001553],[-71.4925212,-36.6001789],[-71.4924915,-36.6001987],[-71.4924593,-36.6002201],[-71.492433,-36.6002359],[-71.492405,-36.6002536],[-71.4923773,-36.600271],[-71.4923296,-36.600301],[-71.4922728,-36.6003153],[-71.4922409,-36.6003234],[-71.492203,-36.6003329],[-71.4921522,-36.6003458],[-71.4921192,-36.6003618],[-71.4920863,-36.6003778],[-71.4920185,-36.600383],[-71.491944,-36.6003888],[-71.4918698,-36.600395],[-71.4918025,-36.6004003],[-71.4917225,-36.6004066],[-71.4916635,-36.6004113],[-71.4916063,-36.6004148],[-71.4915331,-36.6004216],[-71.491471,-36.6004265],[-71.4914014,-36.600432],[-71.4913487,-36.600436],[-71.4912859,-36.6004406],[-71.4912157,-36.6004459],[-71.4911433,-36.6004513],[-71.4910613,-36.6004574],[-71.4909867,-36.600463],[-71.4909271,-36.6004674],[-71.4908717,-36.6004715],[-71.4908312,-36.6004746],[-71.4907839,-36.6004781],[-71.4907558,-36.6004408],[-71.4907194,-36.6003926],[-71.4906834,-36.6003449],[-71.4906441,-36.6002928],[-71.4906184,-36.6002587],[-71.4905928,-36.6002247],[-71.4905592,-36.6001803],[-71.4905262,-36.6001364],[-71.4906236,-36.6001327],[-71.4906973,-36.6001299],[-71.4907702,-36.6001271],[-71.490837,-36.6001246],[-71.4909411,-36.6001206],[-71.4910244,-36.6001174],[-71.4910981,-36.6001146],[-71.4911919,-36.600111],[-71.4912761,-36.6001078],[-71.491362,-36.6001046],[-71.4914487,-36.6001013],[-71.4915363,-36.6000979],[-71.491629,-36.6000944],[-71.4917109,-36.6000911],[-71.4917677,-36.6000891],[-71.4918388,-36.6000864],[-71.4919136,-36.6000835],[-71.4919566,-36.6000819],[-71.4919982,-36.6000803],[-71.4920489,-36.6000784],[-71.4921033,-36.6000763],[-71.4921473,-36.6000746],[-71.4922138,-36.6000721],[-71.4922849,-36.6000694],[-71.4923651,-36.6000663],[-71.492434,-36.6000637],[-71.492499,-36.6000612],[-71.492564,-36.6000588],[-71.4926176,-36.6000567],[-71.4926917,-36.6000539],[-71.4927401,-36.600052],[-71.4927928,-36.60005]]]}},{"type":"Feature","properties":{"lote":"27","estado":"disponible"},"geometry":{"type":"Polygon","coordinates":[[[-71.4941223,-36.6016875],[-71.4937921,-36.6011741],[-71.4937499,-36.6012203],[-71.4936934,-36.6012641],[-71.4936275,-36.6012948],[-71.4935627,-36.6013137],[-71.4933785,-36.6013483],[-71.4932439,-36.6013737],[-71.4930544,-36.6014152],[-71.4929991,-36.6014308],[-71.4929764,-36.6014411],[-71.4929772,-36.6014693],[-71.4929854,-36.6014914],[-71.4930508,-36.6015908],[-71.4931723,-36.6017804],[-71.4933274,-36.6020236],[-71.4941223,-36.6016875]]]}},{"type":"Feature","properties":{"lote":"28","estado":"tramite"},"geometry":{"type":"Polygon","coordinates":[[[-71.492962,-36.6013648],[-71.4930279,-36.6013463],[-71.4930689,-36.6013373],[-71.4931251,-36.601325],[-71.4931681,-36.6013156],[-71.4931904,-36.6013107],[-71.4931904,-36.6013107],[-71.4932222,-36.6013037],[-71.4932552,-36.6012975],[-71.4932871,-36.6012915],[-71.4932947,-36.6012901],[-71.4933291,-36.6012836],[-71.4933743,-36.6012751],[-71.4934363,-36.6012634],[-71.4934646,-36.6012581],[-71.4934857,-36.6012541],[-71.4934892,-36.6012535],[-71.4934987,-36.6012517],[-71.4935377,-36.6012443],[-71.4935688,-36.6012352],[-71.4935903,-36.6012288],[-71.4936152,-36.6012171],[-71.4936401,-36.6012054],[-71.4936658,-36.6011855],[-71.4936824,-36.6011726],[-71.4932085,-36.6005701],[-71.4925334,-36.6009764],[-71.4925554,-36.6010003],[-71.4925576,-36.6010026],[-71.4925803,-36.6010273],[-71.4926797,-36.6011333],[-71.492775,-36.6012318],[-71.492779,-36.6012361],[-71.4928236,-36.6012822],[-71.492842,-36.6013038],[-71.4928603,-36.6013254],[-71.4928868,-36.6013465],[-71.4929133,-36.6013677],[-71.492962,-36.6013648]]]}},{"type":"Feature","properties":{"lote":"29","estado":"tramite"},"geometry":{"type":"Polygon","coordinates":[[[-71.493795,-36.6010044],[-71.493807,-36.6009696],[-71.493851,-36.6008504],[-71.4939299,-36.6006721],[-71.4939691,-36.6006072],[-71.4940264,-36.6005393],[-71.4940426,-36.6005201],[-71.4940629,-36.600493],[-71.494066,-36.6004888],[-71.494069,-36.6004848],[-71.4941562,-36.6003686],[-71.4941896,-36.6003328],[-71.4942043,-36.6003171],[-71.4942175,-36.600303],[-71.4942948,-36.6002204],[-71.4941634,-36.5999954],[-71.4932085,-36.6005701],[-71.4933845,-36.6007938],[-71.4935383,-36.6009894],[-71.4936824,-36.6011726],[-71.4937021,-36.6011511],[-71.4937156,-36.6011364],[-71.493795,-36.6010044]]]}},{"type":"Feature","properties":{"lote":"31","estado":"tramite"},"geometry":{"type":"Polygon","coordinates":[[[-71.4929794,-36.6000691],[-71.4929127,-36.6000899],[-71.4929121,-36.6000901],[-71.4928695,-36.6001034],[-71.4932085,-36.6005701],[-71.4941634,-36.5999954],[-71.4940018,-36.5997184],[-71.4936363,-36.5998497],[-71.4935986,-36.5998633],[-71.4935918,-36.5998657],[-71.4935253,-36.5998897],[-71.4932872,-36.5999649],[-71.4932029,-36.5999922],[-71.4929794,-36.6000691]]]}},{"type":"Feature","properties":{"lote":"32","estado":"disponible"},"geometry":{"type":"Polygon","coordinates":[[[-71.4918462,-36.6018863],[-71.492873,-36.6014677],[-71.4928386,-36.6014273],[-71.4927971,-36.6013785],[-71.4927758,-36.6013535],[-71.4927512,-36.6013246],[-71.4927065,-36.6012783],[-71.4926232,-36.601192],[-71.492517,-36.6010821],[-71.4915328,-36.6014708],[-71.4918462,-36.6018863]]]}},{"type":"Feature","properties":{"lote":"33","estado":"disponible"},"geometry":{"type":"Polygon","coordinates":[[[-71.4981043,-36.5994031],[-71.4970722,-36.599874],[-71.4971582,-36.6000269],[-71.4972352,-36.6002033],[-71.4983618,-36.5998521],[-71.4981043,-36.5994031]]]}},{"type":"Feature","properties":{"lote":"34","estado":"vendido"},"geometry":{"type":"Polygon","coordinates":[[[-71.4988131,-36.6006386],[-71.4974893,-36.6009533],[-71.4974942,-36.6010688],[-71.4974275,-36.601279],[-71.4973296,-36.6013841],[-71.4989068,-36.6009828],[-71.4989643,-36.6008961],[-71.4989077,-36.6008008],[-71.4989,-36.6007878],[-71.4988931,-36.6007763],[-71.4988854,-36.6007634],[-71.498878,-36.600751],[-71.4988696,-36.6007367],[-71.4988636,-36.6007267],[-71.4988564,-36.6007141],[-71.4988468,-36.6006973],[-71.4988348,-36.6006763],[-71.4988268,-36.6006625],[-71.4988131,-36.6006386]]]}},{"type":"Feature","properties":{"lote":"35","estado":"tramite"},"geometry":{"type":"Polygon","coordinates":[[[-71.4921543,-36.6004495],[-71.4921541,-36.60045],[-71.4921509,-36.6004755],[-71.4921516,-36.6005026],[-71.4921575,-36.6005333],[-71.4921658,-36.6005568],[-71.4921782,-36.6005809],[-71.4921902,-36.6005985],[-71.4922112,-36.6006225],[-71.4922305,-36.6006444],[-71.4922436,-36.6006593],[-71.4922921,-36.6007129],[-71.4923232,-36.6007467],[-71.4923278,-36.6007517],[-71.4923483,-36.6007739],[-71.4923483,-36.600774],[-71.4923605,-36.6007872],[-71.492369,-36.6007967],[-71.4925334,-36.6009764],[-71.4925476,-36.6009679],[-71.4932085,-36.6005701],[-71.4928695,-36.6001034],[-71.4927999,-36.6001251],[-71.4927597,-36.6001376],[-71.4927178,-36.6001568],[-71.4926792,-36.6001743],[-71.4926449,-36.6001899],[-71.4926086,-36.6002142],[-71.4925982,-36.6002211],[-71.4925889,-36.6002273],[-71.4925731,-36.6002378],[-71.4925731,-36.6002379],[-71.4925363,-36.6002624],[-71.4924541,-36.6003141],[-71.4924166,-36.6003377],[-71.4923718,-36.6003658],[-71.4923291,-36.6003766],[-71.4922815,-36.6003886],[-71.4922483,-36.600397],[-71.4922059,-36.6004077],[-71.4921912,-36.6004114],[-71.4921741,-36.6004207],[-71.4921543,-36.6004495]]]}},{"type":"Feature","properties":{"lote":"36","estado":"tramite"},"geometry":{"type":"Polygon","coordinates":[[[-71.4944886,-36.602453],[-71.4947039,-36.6032266],[-71.4954168,-36.6028579],[-71.4951128,-36.602307],[-71.4950999,-36.6023109],[-71.4950982,-36.6023114],[-71.4950746,-36.6023185],[-71.4950498,-36.602326],[-71.4950154,-36.6023364],[-71.495009,-36.6023384],[-71.4949897,-36.6023442],[-71.4949501,-36.6023562],[-71.4949109,-36.6023661],[-71.4948685,-36.6023768],[-71.4948389,-36.6023843],[-71.4948233,-36.6023882],[-71.4947898,-36.6023967],[-71.4947884,-36.6023971],[-71.4947566,-36.6024051],[-71.4947276,-36.6024124],[-71.4947058,-36.6024165],[-71.4946679,-36.6024237],[-71.4946281,-36.6024312],[-71.4945847,-36.6024393],[-71.4945847,-36.6024393],[-71.4945598,-36.602444],[-71.4945242,-36.6024485],[-71.4945242,-36.6024485],[-71.4944886,-36.602453]]]}},{"type":"Feature","properties":{"lote":"37","estado":"tramite"},"geometry":{"type":"Polygon","coordinates":[[[-71.4960229,-36.6019575],[-71.4958401,-36.60204],[-71.4956573,-36.6021225],[-71.4955014,-36.6021763],[-71.4953013,-36.6022445],[-71.4951496,-36.6022959],[-71.4951128,-36.602307],[-71.4954168,-36.6028579],[-71.4959353,-36.6025436],[-71.4962509,-36.6023219],[-71.4960229,-36.6019575]]]}},{"type":"Feature","properties":{"lote":"38","estado":"tramite"},"geometry":{"type":"Polygon","coordinates":[[[-71.4939441,-36.5996598],[-71.4916912,-36.5997117],[-71.4917055,-36.6000197],[-71.4930447,-36.5999683],[-71.4930692,-36.5999598],[-71.4930977,-36.5999501],[-71.4931166,-36.5999436],[-71.4931928,-36.5999174],[-71.4931977,-36.5999158],[-71.4931977,-36.5999158],[-71.4932418,-36.5999019],[-71.4934617,-36.5998324],[-71.4935884,-36.599788],[-71.4937688,-36.599723],[-71.4939441,-36.5996598]]]}},{"type":"Feature","properties":{"lote":"39","estado":"tramite"},"geometry":{"type":"Polygon","coordinates":[[[-71.4917109,-36.6000913],[-71.491691,-36.5997122],[-71.4902365,-36.5997556],[-71.4905262,-36.6001364],[-71.4917109,-36.6000913]]]}}]}