{"type":"FeatureCollection","features":[{"type":"Feature","properties":{"lote":"AB 1","superficie":"1,197 ha"},"geometry":{"type":"Polygon","coordinates":[[[-72.4924552,-36.4269964],[-72.4921311,-36.4264897],[-72.4921311,-36.4264897],[-72.4947296,-36.4256324],[-72.4947347,-36.4256489],[-72.4947457,-36.4256846],[-72.4947608,-36.4257335],[-72.4947693,-36.4257613],[-72.4947777,-36.4257887],[-72.4947889,-36.4258248],[-72.4947974,-36.4258526],[-72.4948064,-36.4258819],[-72.4948133,-36.4259044],[-72.4948401,-36.425925],[-72.4924552,-36.4269964]]]}},{"type":"Feature","properties":{"lote":"AB 2","superficie":"1,198 ha"},"geometry":{"type":"Polygon","coordinates":[[[-72.4948507,-36.4259332],[-72.4948555,-36.4259369],[-72.4948624,-36.4259423],[-72.4948694,-36.4259476],[-72.4948783,-36.4259545],[-72.4948952,-36.4259662],[-72.4949172,-36.4259814],[-72.4949359,-36.4259943],[-72.4949606,-36.4260113],[-72.4949776,-36.426023],[-72.4950012,-36.4260393],[-72.4950188,-36.4260515],[-72.4950391,-36.4260655],[-72.4950613,-36.4260808],[-72.4950974,-36.4261057],[-72.4951215,-36.4261224],[-72.4927795,-36.4275032],[-72.4924552,-36.4269964],[-72.4948401,-36.425925],[-72.4948507,-36.4259332]]]}},{"type":"Feature","properties":{"lote":"AB 3","superficie":"1,197 ha"},"geometry":{"type":"Polygon","coordinates":[[[-72.4921311,-36.4264897],[-72.4924552,-36.4269964],[-72.4908173,-36.4277418],[-72.4906918,-36.4274934],[-72.4906863,-36.4274783],[-72.4906629,-36.427414],[-72.4906231,-36.4273051],[-72.4906014,-36.4272454],[-72.490578,-36.4271811],[-72.4905656,-36.4271471],[-72.4905545,-36.4271167],[-72.4905513,-36.427102],[-72.4905384,-36.4270415],[-72.4905331,-36.4270169],[-72.4917522,-36.426615],[-72.4921311,-36.4264897]]]}},{"type":"Feature","properties":{"lote":"AB 4","superficie":"1,198 ha"},"geometry":{"type":"Polygon","coordinates":[[[-72.4914847,-36.4282666],[-72.4914417,-36.428252],[-72.4914002,-36.428238],[-72.4913336,-36.4282155],[-72.4912818,-36.428198],[-72.4912421,-36.4281845],[-72.4911787,-36.4281631],[-72.4911239,-36.4281445],[-72.4910676,-36.4281255],[-72.4910249,-36.4281111],[-72.4909995,-36.4281025],[-72.4909823,-36.4280683],[-72.4909646,-36.4280333],[-72.4909487,-36.4280018],[-72.4909248,-36.4279545],[-72.4908995,-36.4279045],[-72.4908812,-36.4278683],[-72.4908457,-36.4277979],[-72.4908173,-36.4277418],[-72.4924552,-36.4269964],[-72.4927795,-36.4275032],[-72.4914847,-36.4282666]]]}}]}